SL-16 R/B               
1 22566U 93016B   25361.47686132  .00000210  00000+0  13227-3 0  9994
2 22566  71.0085   6.8506 0008046  68.1321 292.0657 14.15294091691955
COSMOS 2242             
1 22626U 93024A   25361.88455166  .00002923  00000+0  25670-3 0  9994
2 22626  82.5195 335.3682 0016179 180.5353 179.5854 14.96171451769650
SL-16 R/B               
1 22803U 93059B   25361.76608675  .00000253  00000+0  14903-3 0  9992
2 22803  70.9888 162.7992 0018723 314.4700  45.4891 14.17217529669341
ARIANE 40 R/B           
1 22830U 93061H   25361.77207757  .00000309  00000+0  12925-3 0  9996
2 22830  98.5057  67.0272 0011618 133.7664 226.4484 14.32811590683801
COSMOS 2278             
1 23087U 94023A   25361.60036066  .00000182  00000+0  11989-3 0  9993
2 23087  71.0536 325.9189 0007715 152.6791 207.4739 14.14349364634613
SL-16 R/B               
1 23088U 94023B   25361.82098955 -.00000165  00000+0 -60589-4 0  9997
2 23088  70.9972 221.8153 0002210   1.5135 358.5994 14.14998793635922
SL-16 R/B               
1 23343U 94074B   25361.84764132  .00000588  00000+0  85635-4 0  9992
2 23343  97.7188  30.5506 0008042  94.5646  79.4529 14.79306929676627
SL-16 R/B               
1 23405U 94077B   25361.83063676 -.00000227  00000+0 -91585-4 0  9991
2 23405  70.9825 143.6667 0005031 272.6183  87.4363 14.15551413606067
ARIANE 40+ R/B          
1 23561U 95021B   25361.82758608  .00000368  00000+0  13134-3 0  9996
2 23561  98.4632  69.2333 0006663   7.4023 104.0556 14.39707098608906
SL-16 R/B               
1 23705U 95058B   25361.62208169 -.00000038  00000+0  49031-5 0  9998
2 23705  71.0218 331.5582 0014520 235.4516 124.5238 14.15481303557656
SL-16 R/B               
1 24298U 96051B   25361.64455368  .00000010  00000+0  31859-4 0  9994
2 24298  70.7596 327.7341 0019458 243.0900 116.8232 14.12397889511476
ORBVIEW 2 (SEASTAR)     
1 24883U 97037A   25361.41406521  .00000360  00000+0  14161-3 0  9995
2 24883  98.8464 158.8585 0001203 274.5332  85.5715 14.35427590498101
