CCSDS_OMM_VERS = 2.0
CREATION_DATE  = 
ORIGINATOR     = 

OBJECT_NAME    = SL-16 R/B
OBJECT_ID      = 1993-016B
CENTER_NAME    = EARTH
REF_FRAME      = TEME
TIME_SYSTEM    = UTC
MEAN_ELEMENT_THEORY = SGP/SGP4

EPOCH          = 2025-12-27T11:26:40.818048
MEAN_MOTION    = 14.15294091
ECCENTRICITY   = .0008046
INCLINATION    = 71.0085
RA_OF_ASC_NODE = 6.8506
ARG_OF_PERICENTER = 68.1321
MEAN_ANOMALY   = 292.0657

EPHEMERIS_TYPE = 0
CLASSIFICATION_TYPE = U
NORAD_CAT_ID   = 22566
ELEMENT_SET_NO = 999
REV_AT_EPOCH   = 69195
BSTAR          = .13227E-3
MEAN_MOTION_DOT = .21E-5
MEAN_MOTION_DDOT = 0

CCSDS_OMM_VERS = 2.0
CREATION_DATE  = 
ORIGINATOR     = 

OBJECT_NAME    = COSMOS 2242
OBJECT_ID      = 1993-024A
CENTER_NAME    = EARTH
REF_FRAME      = TEME
TIME_SYSTEM    = UTC
MEAN_ELEMENT_THEORY = SGP/SGP4

EPOCH          = 2025-12-27T21:13:45.263424
MEAN_MOTION    = 14.96171451
ECCENTRICITY   = .0016179
INCLINATION    = 82.5195
RA_OF_ASC_NODE = 335.3682
ARG_OF_PERICENTER = 180.5353
MEAN_ANOMALY   = 179.5854

EPHEMERIS_TYPE = 0
CLASSIFICATION_TYPE = U
NORAD_CAT_ID   = 22626
ELEMENT_SET_NO = 999
REV_AT_EPOCH   = 76965
BSTAR          = .2567E-3
MEAN_MOTION_DOT = .2923E-4
MEAN_MOTION_DDOT = 0

CCSDS_OMM_VERS = 2.0
CREATION_DATE  = 
ORIGINATOR     = 

OBJECT_NAME    = SL-16 R/B
OBJECT_ID      = 1993-059B
CENTER_NAME    = EARTH
REF_FRAME      = TEME
TIME_SYSTEM    = UTC
MEAN_ELEMENT_THEORY = SGP/SGP4

EPOCH          = 2025-12-27T18:23:09.895200
MEAN_MOTION    = 14.17217529
ECCENTRICITY   = .0018723
INCLINATION    = 70.9888
RA_OF_ASC_NODE = 162.7992
ARG_OF_PERICENTER = 314.4700
MEAN_ANOMALY   = 45.4891

EPHEMERIS_TYPE = 0
CLASSIFICATION_TYPE = U
NORAD_CAT_ID   = 22803
ELEMENT_SET_NO = 999
REV_AT_EPOCH   = 66934
BSTAR          = .14903E-3
MEAN_MOTION_DOT = .253E-5
MEAN_MOTION_DDOT = 0

CCSDS_OMM_VERS = 2.0
CREATION_DATE  = 
ORIGINATOR     = 

OBJECT_NAME    = ARIANE 40 R/B
OBJECT_ID      = 1993-061H
CENTER_NAME    = EARTH
REF_FRAME      = TEME
TIME_SYSTEM    = UTC
MEAN_ELEMENT_THEORY = SGP/SGP4

EPOCH          = 2025-12-27T18:31:47.502048
MEAN_MOTION    = 14.32811590
ECCENTRICITY   = .0011618
INCLINATION    = 98.5057
RA_OF_ASC_NODE = 67.0272
ARG_OF_PERICENTER = 133.7664
MEAN_ANOMALY   = 226.4484

EPHEMERIS_TYPE = 0
CLASSIFICATION_TYPE = U
NORAD_CAT_ID   = 22830
ELEMENT_SET_NO = 999
REV_AT_EPOCH   = 68380
BSTAR          = .12925E-3
MEAN_MOTION_DOT = .309E-5
MEAN_MOTION_DDOT = 0

CCSDS_OMM_VERS = 2.0
CREATION_DATE  = 
ORIGINATOR     = 

OBJECT_NAME    = COSMOS 2278
OBJECT_ID      = 1994-023A
CENTER_NAME    = EARTH
REF_FRAME      = TEME
TIME_SYSTEM    = UTC
MEAN_ELEMENT_THEORY = SGP/SGP4

EPOCH          = 2025-12-27T14:24:31.161024
MEAN_MOTION    = 14.14349364
ECCENTRICITY   = .0007715
INCLINATION    = 71.0536
RA_OF_ASC_NODE = 325.9189
ARG_OF_PERICENTER = 152.6791
MEAN_ANOMALY   = 207.4739

EPHEMERIS_TYPE = 0
CLASSIFICATION_TYPE = U
NORAD_CAT_ID   = 23087
ELEMENT_SET_NO = 999
REV_AT_EPOCH   = 63461
BSTAR          = .11989E-3
MEAN_MOTION_DOT = .182E-5
MEAN_MOTION_DDOT = 0

CCSDS_OMM_VERS = 2.0
CREATION_DATE  = 
ORIGINATOR     = 

OBJECT_NAME    = SL-16 R/B
OBJECT_ID      = 1994-023B
CENTER_NAME    = EARTH
REF_FRAME      = TEME
TIME_SYSTEM    = UTC
MEAN_ELEMENT_THEORY = SGP/SGP4

EPOCH          = 2025-12-27T19:42:13.497120
MEAN_MOTION    = 14.14998793
ECCENTRICITY   = .000221
INCLINATION    = 70.9972
RA_OF_ASC_NODE = 221.8153
ARG_OF_PERICENTER = 1.5135
MEAN_ANOMALY   = 358.5994

EPHEMERIS_TYPE = 0
CLASSIFICATION_TYPE = U
NORAD_CAT_ID   = 23088
ELEMENT_SET_NO = 999
REV_AT_EPOCH   = 63592
BSTAR          = -.60589E-4
MEAN_MOTION_DOT = -.165E-5
MEAN_MOTION_DDOT = 0

CCSDS_OMM_VERS = 2.0
CREATION_DATE  = 
ORIGINATOR     = 

OBJECT_NAME    = SL-16 R/B
OBJECT_ID      = 1994-074B
CENTER_NAME    = EARTH
REF_FRAME      = TEME
TIME_SYSTEM    = UTC
MEAN_ELEMENT_THEORY = SGP/SGP4

EPOCH          = 2025-12-27T20:20:36.210048
MEAN_MOTION    = 14.79306929
ECCENTRICITY   = .0008042
INCLINATION    = 97.7188
RA_OF_ASC_NODE = 30.5506
ARG_OF_PERICENTER = 94.5646
MEAN_ANOMALY   = 79.4529

EPHEMERIS_TYPE = 0
CLASSIFICATION_TYPE = U
NORAD_CAT_ID   = 23343
ELEMENT_SET_NO = 999
REV_AT_EPOCH   = 67662
BSTAR          = .85635E-4
MEAN_MOTION_DOT = .588E-5
MEAN_MOTION_DDOT = 0

CCSDS_OMM_VERS = 2.0
CREATION_DATE  = 
ORIGINATOR     = 

OBJECT_NAME    = SL-16 R/B
OBJECT_ID      = 1994-077B
CENTER_NAME    = EARTH
REF_FRAME      = TEME
TIME_SYSTEM    = UTC
MEAN_ELEMENT_THEORY = SGP/SGP4

EPOCH          = 2025-12-27T19:56:07.016064
MEAN_MOTION    = 14.15551413
ECCENTRICITY   = .0005031
INCLINATION    = 70.9825
RA_OF_ASC_NODE = 143.6667
ARG_OF_PERICENTER = 272.6183
MEAN_ANOMALY   = 87.4363

EPHEMERIS_TYPE = 0
CLASSIFICATION_TYPE = U
NORAD_CAT_ID   = 23405
ELEMENT_SET_NO = 999
REV_AT_EPOCH   = 60606
BSTAR          = -.91585E-4
MEAN_MOTION_DOT = -.227E-5
MEAN_MOTION_DDOT = 0

CCSDS_OMM_VERS = 2.0
CREATION_DATE  = 
ORIGINATOR     = 

OBJECT_NAME    = ARIANE 40+ R/B
OBJECT_ID      = 1995-021B
CENTER_NAME    = EARTH
REF_FRAME      = TEME
TIME_SYSTEM    = UTC
MEAN_ELEMENT_THEORY = SGP/SGP4

EPOCH          = 2025-12-27T19:51:43.437312
MEAN_MOTION    = 14.39707098
ECCENTRICITY   = .0006663
INCLINATION    = 98.4632
RA_OF_ASC_NODE = 69.2333
ARG_OF_PERICENTER = 7.4023
MEAN_ANOMALY   = 104.0556

EPHEMERIS_TYPE = 0
CLASSIFICATION_TYPE = U
NORAD_CAT_ID   = 23561
ELEMENT_SET_NO = 999
REV_AT_EPOCH   = 60890
BSTAR          = .13134E-3
MEAN_MOTION_DOT = .368E-5
MEAN_MOTION_DDOT = 0

CCSDS_OMM_VERS = 2.0
CREATION_DATE  = 
ORIGINATOR     = 

OBJECT_NAME    = SL-16 R/B
OBJECT_ID      = 1995-058B
CENTER_NAME    = EARTH
REF_FRAME      = TEME
TIME_SYSTEM    = UTC
MEAN_ELEMENT_THEORY = SGP/SGP4

EPOCH          = 2025-12-27T14:55:47.858016
MEAN_MOTION    = 14.15481303
ECCENTRICITY   = .001452
INCLINATION    = 71.0218
RA_OF_ASC_NODE = 331.5582
ARG_OF_PERICENTER = 235.4516
MEAN_ANOMALY   = 124.5238

EPHEMERIS_TYPE = 0
CLASSIFICATION_TYPE = U
NORAD_CAT_ID   = 23705
ELEMENT_SET_NO = 999
REV_AT_EPOCH   = 55765
BSTAR          = .49031E-5
MEAN_MOTION_DOT = -.38E-6
MEAN_MOTION_DDOT = 0

CCSDS_OMM_VERS = 2.0
CREATION_DATE  = 
ORIGINATOR     = 

OBJECT_NAME    = SL-16 R/B
OBJECT_ID      = 1996-051B
CENTER_NAME    = EARTH
REF_FRAME      = TEME
TIME_SYSTEM    = UTC
MEAN_ELEMENT_THEORY = SGP/SGP4

EPOCH          = 2025-12-27T15:28:09.437952
MEAN_MOTION    = 14.12397889
ECCENTRICITY   = .0019458
INCLINATION    = 70.7596
RA_OF_ASC_NODE = 327.7341
ARG_OF_PERICENTER = 243.0900
MEAN_ANOMALY   = 116.8232

EPHEMERIS_TYPE = 0
CLASSIFICATION_TYPE = U
NORAD_CAT_ID   = 24298
ELEMENT_SET_NO = 999
REV_AT_EPOCH   = 51147
BSTAR          = .31859E-4
MEAN_MOTION_DOT = .1E-6
MEAN_MOTION_DDOT = 0

CCSDS_OMM_VERS = 2.0
CREATION_DATE  = 
ORIGINATOR     = 

OBJECT_NAME    = ORBVIEW 2 (SEASTAR)
OBJECT_ID      = 1997-037A
CENTER_NAME    = EARTH
REF_FRAME      = TEME
TIME_SYSTEM    = UTC
MEAN_ELEMENT_THEORY = SGP/SGP4

EPOCH          = 2025-12-27T09:56:15.234144
MEAN_MOTION    = 14.35427590
ECCENTRICITY   = .0001203
INCLINATION    = 98.8464
RA_OF_ASC_NODE = 158.8585
ARG_OF_PERICENTER = 274.5332
MEAN_ANOMALY   = 85.5715

EPHEMERIS_TYPE = 0
CLASSIFICATION_TYPE = U
NORAD_CAT_ID   = 24883
ELEMENT_SET_NO = 999
REV_AT_EPOCH   = 49810
BSTAR          = .14161E-3
MEAN_MOTION_DOT = .36E-5
MEAN_MOTION_DDOT = 0

